CCSDS_OMM_VERS = 2.0
CREATION_DATE  = 
ORIGINATOR     = 

OBJECT_NAME    = KUIPER-00177
OBJECT_ID      = 2026-030C
CENTER_NAME    = EARTH
REF_FRAME      = TEME
TIME_SYSTEM    = UTC
MEAN_ELEMENT_THEORY = SGP/SGP4

EPOCH          = 2026-03-02T22:03:46.278432
MEAN_MOTION    = 15.36181588
ECCENTRICITY   = .00005318
INCLINATION    = 51.8826
RA_OF_ASC_NODE = 251.6963
ARG_OF_PERICENTER = 22.4191
MEAN_ANOMALY   = 337.6819

EPHEMERIS_TYPE = 0
CLASSIFICATION_TYPE = U
NORAD_CAT_ID   = 67766
ELEMENT_SET_NO = 999
REV_AT_EPOCH   = 405
BSTAR          = .77052652E-3
MEAN_MOTION_DOT = .273E-3
MEAN_MOTION_DDOT = 0

CCSDS_OMM_VERS = 2.0
CREATION_DATE  = 
ORIGINATOR     = 

OBJECT_NAME    = KUIPER-00178
OBJECT_ID      = 2026-030D
CENTER_NAME    = EARTH
REF_FRAME      = TEME
TIME_SYSTEM    = UTC
MEAN_ELEMENT_THEORY = SGP/SGP4

EPOCH          = 2026-03-02T22:21:30.059424
MEAN_MOTION    = 15.35191450
ECCENTRICITY   = .00057277
INCLINATION    = 51.8823
RA_OF_ASC_NODE = 251.7766
ARG_OF_PERICENTER = 28.4735
MEAN_ANOMALY   = 331.6563

EPHEMERIS_TYPE = 0
CLASSIFICATION_TYPE = U
NORAD_CAT_ID   = 67767
ELEMENT_SET_NO = 999
REV_AT_EPOCH   = 405
BSTAR          = .8103657E-3
MEAN_MOTION_DOT = .27839E-3
MEAN_MOTION_DDOT = 0

CCSDS_OMM_VERS = 2.0
CREATION_DATE  = 
ORIGINATOR     = 

OBJECT_NAME    = KUIPER-00180
OBJECT_ID      = 2026-030E
CENTER_NAME    = EARTH
REF_FRAME      = TEME
TIME_SYSTEM    = UTC
MEAN_ELEMENT_THEORY = SGP/SGP4

EPOCH          = 2026-03-02T22:58:12.273600
MEAN_MOTION    = 15.32185450
ECCENTRICITY   = .00158508
INCLINATION    = 51.8798
RA_OF_ASC_NODE = 251.9342
ARG_OF_PERICENTER = 48.7894
MEAN_ANOMALY   = 311.4454

EPHEMERIS_TYPE = 0
CLASSIFICATION_TYPE = U
NORAD_CAT_ID   = 67768
ELEMENT_SET_NO = 999
REV_AT_EPOCH   = 405
BSTAR          = .38922601E-3
MEAN_MOTION_DOT = .11964E-3
MEAN_MOTION_DDOT = 0

CCSDS_OMM_VERS = 2.0
CREATION_DATE  = 
ORIGINATOR     = 

OBJECT_NAME    = KUIPER-00197
OBJECT_ID      = 2026-030F
CENTER_NAME    = EARTH
REF_FRAME      = TEME
TIME_SYSTEM    = UTC
MEAN_ELEMENT_THEORY = SGP/SGP4

EPOCH          = 2026-03-02T22:06:34.278048
MEAN_MOTION    = 15.36058846
ECCENTRICITY   = .00010795
INCLINATION    = 51.8827
RA_OF_ASC_NODE = 251.7090
ARG_OF_PERICENTER = 66.7962
MEAN_ANOMALY   = 293.3138

EPHEMERIS_TYPE = 0
CLASSIFICATION_TYPE = U
NORAD_CAT_ID   = 67769
ELEMENT_SET_NO = 999
REV_AT_EPOCH   = 405
BSTAR          = .78230771E-3
MEAN_MOTION_DOT = .27615E-3
MEAN_MOTION_DDOT = 0

CCSDS_OMM_VERS = 2.0
CREATION_DATE  = 
ORIGINATOR     = 

OBJECT_NAME    = KUIPER-00198
OBJECT_ID      = 2026-030G
CENTER_NAME    = EARTH
REF_FRAME      = TEME
TIME_SYSTEM    = UTC
MEAN_ELEMENT_THEORY = SGP/SGP4

EPOCH          = 2026-03-02T22:12:44.547840
MEAN_MOTION    = 15.35700164
ECCENTRICITY   = .0002786
INCLINATION    = 51.8803
RA_OF_ASC_NODE = 251.7329
ARG_OF_PERICENTER = 33.2245
MEAN_ANOMALY   = 326.8915

EPHEMERIS_TYPE = 0
CLASSIFICATION_TYPE = U
NORAD_CAT_ID   = 67770
ELEMENT_SET_NO = 999
REV_AT_EPOCH   = 405
BSTAR          = .76564973E-3
MEAN_MOTION_DOT = .26705E-3
MEAN_MOTION_DDOT = 0

CCSDS_OMM_VERS = 2.0
CREATION_DATE  = 
ORIGINATOR     = 

OBJECT_NAME    = KUIPER-00199
OBJECT_ID      = 2026-030H
CENTER_NAME    = EARTH
REF_FRAME      = TEME
TIME_SYSTEM    = UTC
MEAN_ELEMENT_THEORY = SGP/SGP4

EPOCH          = 2026-03-02T22:40:12.733248
MEAN_MOTION    = 15.34042411
ECCENTRICITY   = .00103103
INCLINATION    = 51.8795
RA_OF_ASC_NODE = 251.8547
ARG_OF_PERICENTER = 41.6892
MEAN_ANOMALY   = 318.4877

EPHEMERIS_TYPE = 0
CLASSIFICATION_TYPE = U
NORAD_CAT_ID   = 67771
ELEMENT_SET_NO = 999
REV_AT_EPOCH   = 405
BSTAR          = .88063526E-3
MEAN_MOTION_DOT = .29226E-3
MEAN_MOTION_DDOT = 0

CCSDS_OMM_VERS = 2.0
CREATION_DATE  = 
ORIGINATOR     = 

OBJECT_NAME    = KUIPER-00200
OBJECT_ID      = 2026-030J
CENTER_NAME    = EARTH
REF_FRAME      = TEME
TIME_SYSTEM    = UTC
MEAN_ELEMENT_THEORY = SGP/SGP4

EPOCH          = 2026-03-02T21:56:05.654976
MEAN_MOTION    = 15.36704553
ECCENTRICITY   = .00016903
INCLINATION    = 51.8810
RA_OF_ASC_NODE = 251.6596
ARG_OF_PERICENTER = 202.7910
MEAN_ANOMALY   = 157.3002

EPHEMERIS_TYPE = 0
CLASSIFICATION_TYPE = U
NORAD_CAT_ID   = 67772
ELEMENT_SET_NO = 999
REV_AT_EPOCH   = 405
BSTAR          = .10547031E-2
MEAN_MOTION_DOT = .38208E-3
MEAN_MOTION_DDOT = 0

CCSDS_OMM_VERS = 2.0
CREATION_DATE  = 
ORIGINATOR     = 

OBJECT_NAME    = KUIPER-00203
OBJECT_ID      = 2026-030K
CENTER_NAME    = EARTH
REF_FRAME      = TEME
TIME_SYSTEM    = UTC
MEAN_ELEMENT_THEORY = SGP/SGP4

EPOCH          = 2026-03-02T22:00:01.999584
MEAN_MOTION    = 15.27529823
ECCENTRICITY   = .00120238
INCLINATION    = 51.8800
RA_OF_ASC_NODE = 252.0914
ARG_OF_PERICENTER = 44.4802
MEAN_ANOMALY   = 99.3786

EPHEMERIS_TYPE = 0
CLASSIFICATION_TYPE = U
NORAD_CAT_ID   = 67773
ELEMENT_SET_NO = 999
REV_AT_EPOCH   = 261
BSTAR          = -.52457221E-1
MEAN_MOTION_DOT = -.1312845E-1
MEAN_MOTION_DDOT = 0

CCSDS_OMM_VERS = 2.0
CREATION_DATE  = 
ORIGINATOR     = 

OBJECT_NAME    = KUIPER-00205
OBJECT_ID      = 2026-030L
CENTER_NAME    = EARTH
REF_FRAME      = TEME
TIME_SYSTEM    = UTC
MEAN_ELEMENT_THEORY = SGP/SGP4

EPOCH          = 2026-03-02T22:07:36.720192
MEAN_MOTION    = 15.36041700
ECCENTRICITY   = .00023276
INCLINATION    = 51.8805
RA_OF_ASC_NODE = 251.7099
ARG_OF_PERICENTER = 2.5355
MEAN_ANOMALY   = 357.5643

EPHEMERIS_TYPE = 0
CLASSIFICATION_TYPE = U
NORAD_CAT_ID   = 67774
ELEMENT_SET_NO = 999
REV_AT_EPOCH   = 405
BSTAR          = .78672894E-3
MEAN_MOTION_DOT = .27759E-3
MEAN_MOTION_DDOT = 0

CCSDS_OMM_VERS = 2.0
CREATION_DATE  = 
ORIGINATOR     = 

OBJECT_NAME    = KUIPER-00208
OBJECT_ID      = 2026-030M
CENTER_NAME    = EARTH
REF_FRAME      = TEME
TIME_SYSTEM    = UTC
MEAN_ELEMENT_THEORY = SGP/SGP4

EPOCH          = 2026-03-02T21:21:30.103200
MEAN_MOTION    = 15.32829321
ECCENTRICITY   = .00146231
INCLINATION    = 51.8824
RA_OF_ASC_NODE = 252.2423
ARG_OF_PERICENTER = 43.7516
MEAN_ANOMALY   = 316.4626

EPHEMERIS_TYPE = 0
CLASSIFICATION_TYPE = U
NORAD_CAT_ID   = 67775
ELEMENT_SET_NO = 999
REV_AT_EPOCH   = 404
BSTAR          = -.20290498E-3
MEAN_MOTION_DOT = -.6927E-4
MEAN_MOTION_DDOT = 0

CCSDS_OMM_VERS = 2.0
CREATION_DATE  = 
ORIGINATOR     = 

OBJECT_NAME    = KUIPER-00209
OBJECT_ID      = 2026-030N
CENTER_NAME    = EARTH
REF_FRAME      = TEME
TIME_SYSTEM    = UTC
MEAN_ELEMENT_THEORY = SGP/SGP4

EPOCH          = 2026-03-02T21:25:31.307808
MEAN_MOTION    = 15.31436937
ECCENTRICITY   = .00134672
INCLINATION    = 51.8817
RA_OF_ASC_NODE = 252.2586
ARG_OF_PERICENTER = 44.6731
MEAN_ANOMALY   = 315.5336

EPHEMERIS_TYPE = 0
CLASSIFICATION_TYPE = U
NORAD_CAT_ID   = 67776
ELEMENT_SET_NO = 999
REV_AT_EPOCH   = 404
BSTAR          = -.34739041E-3
MEAN_MOTION_DOT = -.11091E-3
MEAN_MOTION_DDOT = 0

CCSDS_OMM_VERS = 2.0
CREATION_DATE  = 
ORIGINATOR     = 

OBJECT_NAME    = KUIPER-00213
OBJECT_ID      = 2026-030P
CENTER_NAME    = EARTH
REF_FRAME      = TEME
TIME_SYSTEM    = UTC
MEAN_ELEMENT_THEORY = SGP/SGP4

EPOCH          = 2026-03-02T22:56:05.876448
MEAN_MOTION    = 15.32451082
ECCENTRICITY   = .00148667
INCLINATION    = 51.8796
RA_OF_ASC_NODE = 251.9247
ARG_OF_PERICENTER = 44.6701
MEAN_ANOMALY   = 315.5479

EPHEMERIS_TYPE = 0
CLASSIFICATION_TYPE = U
NORAD_CAT_ID   = 67777
ELEMENT_SET_NO = 999
REV_AT_EPOCH   = 405
BSTAR          = .41822352E-3
MEAN_MOTION_DOT = .12989E-3
MEAN_MOTION_DDOT = 0

