KUIPER-00177            
1 67766U 26030C   26061.91928563  .00027300  00000+0  77053-3 0  9997
2 67766  51.8826 251.6963 0000531  22.4191 337.6819 15.36181588  4056
KUIPER-00178            
1 67767U 26030D   26061.93159791  .00027839  00000+0  81037-3 0  9993
2 67767  51.8823 251.7766 0005727  28.4735 331.6563 15.35191450  4056
KUIPER-00180            
1 67768U 26030E   26061.95708650  .00011964  00000+0  38923-3 0  9998
2 67768  51.8798 251.9342 0015850  48.7894 311.4454 15.32185450  4054
KUIPER-00197            
1 67769U 26030F   26061.92123007  .00027615  00000+0  78231-3 0  9999
2 67769  51.8827 251.7090 0001079  66.7962 293.3138 15.36058846  4059
KUIPER-00198            
1 67770U 26030G   26061.92551560  .00026705  00000+0  76565-3 0  9997
2 67770  51.8803 251.7329 0002786  33.2245 326.8915 15.35700164  4050
KUIPER-00199            
1 67771U 26030H   26061.94459182  .00029226  00000+0  88064-3 0  9995
2 67771  51.8795 251.8547 0010310  41.6892 318.4877 15.34042411  4054
KUIPER-00200            
1 67772U 26030J   26061.91395434  .00038208  00000+0  10547-2 0  9992
2 67772  51.8810 251.6596 0001690 202.7910 157.3002 15.36704553  4051
KUIPER-00203            
1 67773U 26030K   26061.91668981 -.01312845  00000+0 -52457-1 0  9993
2 67773  51.8800 252.0914 0012023  44.4802  99.3786 15.27529823  2612
KUIPER-00205            
1 67774U 26030L   26061.92195278  .00027759  00000+0  78673-3 0  9993
2 67774  51.8805 251.7099 0002327   2.5355 357.5643 15.36041700  4056
KUIPER-00208            
1 67775U 26030M   26061.88993175 -.00006927  00000+0 -20290-3 0  9999
2 67775  51.8824 252.2423 0014623  43.7516 316.4626 15.32829321  4046
KUIPER-00209            
1 67776U 26030N   26061.89272347 -.00011091  00000+0 -34739-3 0  9993
2 67776  51.8817 252.2586 0013467  44.6731 315.5336 15.31436937  4047
KUIPER-00213            
1 67777U 26030P   26061.95562357  .00012989  00000+0  41822-3 0  9990
2 67777  51.8796 251.9247 0014866  44.6701 315.5479 15.32451082  4053
